{
    "links": {
        "self": "http://www.neowsapp.com/rest/v1/neo/54087837?api_key=iIulBulltgU6a56xZRHN4H3l9WmuAYTsLGpBGhQ2"
    },
    "id": "54087837",
    "neo_reference_id": "54087837",
    "name": "(2020 VH5)",
    "designation": "2020 VH5",
    "nasa_jpl_url": "http://ssd.jpl.nasa.gov/sbdb.cgi?sstr=54087837",
    "absolute_magnitude_h": 29.195,
    "estimated_diameter": {
        "kilometers": {
            "estimated_diameter_min": 0.0038508356,
            "estimated_diameter_max": 0.0086107301
        },
        "meters": {
            "estimated_diameter_min": 3.8508355867,
            "estimated_diameter_max": 8.6107301421
        },
        "miles": {
            "estimated_diameter_min": 0.0023927976,
            "estimated_diameter_max": 0.005350458
        },
        "feet": {
            "estimated_diameter_min": 12.6339754263,
            "estimated_diameter_max": 28.2504278794
        }
    },
    "is_potentially_hazardous_asteroid": false,
    "close_approach_data": [
        {
            "close_approach_date": "2020-11-13",
            "close_approach_date_full": "2020-Nov-13 19:46",
            "epoch_date_close_approach": 1605296760000,
            "relative_velocity": {
                "kilometers_per_second": "7.4995732707",
                "kilometers_per_hour": "26998.4637746427",
                "miles_per_hour": "16775.7954493051"
            },
            "miss_distance": {
                "astronomical": "0.0016913425",
                "lunar": "0.6579322325",
                "kilometers": "253021.235440475",
                "miles": "157220.105309555"
            },
            "orbiting_body": "Earth"
        },
        {
            "close_approach_date": "2020-11-14",
            "close_approach_date_full": "2020-Nov-14 02:04",
            "epoch_date_close_approach": 1605319440000,
            "relative_velocity": {
                "kilometers_per_second": "8.3265635571",
                "kilometers_per_hour": "29975.6288056122",
                "miles_per_hour": "18625.6900209094"
            },
            "miss_distance": {
                "astronomical": "0.0036811935",
                "lunar": "1.4319842715",
                "kilometers": "550698.706657845",
                "miles": "342188.308834461"
            },
            "orbiting_body": "Moon"
        },
        {
            "close_approach_date": "2082-11-16",
            "close_approach_date_full": "2082-Nov-16 07:03",
            "epoch_date_close_approach": 3562038180000,
            "relative_velocity": {
                "kilometers_per_second": "7.3425712864",
                "kilometers_per_hour": "26433.2566309231",
                "miles_per_hour": "16424.5977104756"
            },
            "miss_distance": {
                "astronomical": "0.003966845",
                "lunar": "1.543102705",
                "kilometers": "593431.56262015",
                "miles": "368741.27425207"
            },
            "orbiting_body": "Earth"
        },
        {
            "close_approach_date": "2082-11-16",
            "close_approach_date_full": "2082-Nov-16 18:47",
            "epoch_date_close_approach": 3562080420000,
            "relative_velocity": {
                "kilometers_per_second": "7.860058178",
                "kilometers_per_hour": "28296.209440732",
                "miles_per_hour": "17582.1641383259"
            },
            "miss_distance": {
                "astronomical": "0.0048977277",
                "lunar": "1.9052160753",
                "kilometers": "732689.631759999",
                "miles": "455272.2259220262"
            },
            "orbiting_body": "Moon"
        }
    ],
    "orbital_data": {
        "orbit_id": "1",
        "orbit_determination_date": "2020-11-15 11:12:03",
        "first_observation_date": "2020-11-13",
        "last_observation_date": "2020-11-15",
        "data_arc_in_days": 2,
        "observations_used": 32,
        "orbit_uncertainty": "7",
        "minimum_orbit_intersection": ".0021997",
        "jupiter_tisserand_invariant": "3.715",
        "epoch_osculation": "2459000.5",
        "eccentricity": ".4976032283178197",
        "semi_major_axis": "1.960158103004238",
        "inclination": "4.974094747244361",
        "ascending_node_longitude": "51.44368003004019",
        "orbital_period": "1002.386202700174",
        "perihelion_distance": ".984777102935996",
        "perihelion_argument": "11.55983408992018",
        "aphelion_distance": "2.93553910307248",
        "perihelion_time": "2459176.585636382321",
        "mean_anomaly": "296.760074184105",
        "mean_motion": ".3591430119750764",
        "equinox": "J2000",
        "orbit_class": {
            "orbit_class_type": "APO",
            "orbit_class_description": "Near-Earth asteroid orbits which cross the Earth’s orbit similar to that of 1862 Apollo",
            "orbit_class_range": "a (semi-major axis) > 1.0 AU; q (perihelion) < 1.017 AU"
        }
    },
    "is_sentry_object": false
}